FENGYUN 1C DEB          
1 30348U 99025ABK 17345.80699378  .00000927  00000-0  48959-3 0  9999
2 30348  99.0223   6.6501 0023711 115.4873 297.6719 14.16238081560226
